GLOBALSTAR M057 [-]     
1 25943U 99058A   24060.54399439 -.00000070  00000+0  21068-3 0  9999
2 25943  51.9958 252.3470 0003460 105.5964 254.5267 12.24780757108898
GLOBALSTAR M056 [-]     
1 25945U 99058C   24060.26674368 -.00000131  00000+0 -50645-3 0  9999
2 25945  51.9962  63.3870 0000852 317.4234  55.2076 12.04772582105509
GLOBALSTAR M031 [-]     
1 25946U 99058D   24060.56839374 -.00000137  00000+0 -47182-3 0  9991
2 25946  51.9992 343.2331 0001187 318.9249 213.4516 12.16002737107161
GLOBALSTAR M039 [-]     
1 25961U 99062A   24060.26379946 -.00000073  00000+0  16973-3 0  9996
2 25961  51.9830 272.1444 0003278  32.5277 327.5791 12.62283316120361
GLOBALSTAR M034 [-]     
1 25962U 99062B   24060.53172988 -.00000108  00000+0 -43653-3 0  9999
2 25962  51.9861 162.5921 0013995 223.6243 149.2425 11.79423100 82501
GLOBALSTAR M029 [-]     
1 25963U 99062C   24060.37980035 -.00000058  00000+0  34533-3 0  9992
2 25963  51.9808 297.3963 0001799 274.0956 257.5120 11.99874467112244
GLOBALSTAR M061 [-]     
1 25964U 99062D   24060.51808987 -.00000062  00000+0  29281-3 0  9993
2 25964  51.9829 340.3879 0006004 149.6649  21.0520 11.76758764 65413
